MALLIGYONG-1            
1 58400U 23179A   24084.57036947  .00014908  00000+0  66282-3 0  9996
2 58400  97.4161 332.6843 0009219 188.4968 171.6113 15.21566275 18853
